STARLINK-37357          
1 69517U 26133K   26171.41668980 -.01769598  95279-3 -32090-2 0  9990
2 69517  53.1582 306.1376 0000758  71.6438 319.8560 16.00949811  2383
STARLINK-37408          
1 69518U 26133L   26171.41668980 -.01762303  94864-3 -31418-2 0  9990
2 69518  53.1582 306.1275 0000739  69.2474 327.1862 16.01242896  2381
STARLINK-37570          
1 69519U 26133M   26171.41668980 -.01712540  90706-3 -29229-2 0  9997
2 69519  53.1583 306.1033 0000739  69.8531 338.0418 16.01982400  2385
STARLINK-37510          
1 69520U 26133N   26171.41668980 -.01737613  92805-3 -30297-2 0  9996
2 69520  53.1578 306.1160 0000827  74.3780 327.8470 16.01620855  2384
STARLINK-37586          
1 69521U 26133P   26171.41668980 -.01708640  90901-3 -28226-2 0  9999
2 69521  53.1578 306.0838 0000717  70.3904 346.9739 16.02536437  2381
STARLINK-37379          
1 69522U 26133Q   26171.41668980 -.01702085  90481-3 -27757-2 0  9998
2 69522  53.1579 306.0747 0000691  78.0989 343.4751 16.02753377  2437
STARLINK-37429          
1 69523U 26133R   26171.41668980 -.01695868  90087-3 -27312-2 0  9998
2 69523  53.1577 306.0661 0000804  76.5840 349.1210 16.02963154  2435
STARLINK-37352          
1 69524U 26133S   26171.41668980 -.01673902  88306-3 -26374-2 0  9992
2 69524  53.1577 306.0542 0000674  73.4809 357.8422 16.03327691  2432
STARLINK-37490          
1 69525U 26133T   26171.41668980 -.01824286  10469-2 -27418-2 0  9990
2 69525  53.1574 306.0312 0001071  67.9386  14.3799 16.04132446  2430
STARLINK-37438          
1 69526U 26133U   26171.41668980 -.01654635  86737-3 -25597-2 0  9998
2 69526  53.1577 306.0444 0000891  73.5679   2.7715 16.03631188  2432
STARLINK-37484          
1 69527U 26133V   26171.41668980 -.01648752  86872-3 -24461-2 0  9991
2 69527  53.1574 306.0194 0000697  66.8217  21.1318 16.04324528  2431
STARLINK-37523          
1 69528U 26133W   26171.41668980 -.01621058  84409-3 -23721-2 0  9994
2 69528  53.1575 306.0104 0000705  78.4357  13.8327 16.04547648  2436
STARLINK-37369          
1 69529U 26133X   26171.41668980 -.01586275  81305-3 -22887-2 0  9990
2 69529  53.1571 306.0011 0000651  71.2008  25.4875 16.04774971  2432
STARLINK-37670          
1 69530U 26133Y   26171.41668980 -.01588580  82013-3 -22227-2 0  9998
2 69530  53.1571 305.9876 0000588  83.1752  20.1513 16.05277249  2436
STARLINK-37897          
1 69531U 26133Z   26171.41668980 -.01555956  79220-3 -21351-2 0  9993
2 69531  53.1570 305.9741 0000724  79.6577  29.8480 16.05589196  2384
STARLINK-37933          
1 69532U 26133AA  26171.41668980 -.01538261  78040-3 -20451-2 0  9993
2 69532  53.1571 305.9597 0000695  68.1335  48.1374 16.06097562  2385
STARLINK-37890          
1 69533U 26133AB  26171.41668980 -.01535657  78064-3 -20060-2 0  9992
2 69533  53.1573 305.9499 0000713  71.8054  49.1646 16.06381030  2388
STARLINK-37407          
1 69534U 26133AC  26171.41668980 -.01476205  72890-3 -18854-2 0  9995
2 69534  53.1570 305.9347 0000711  78.6011  49.3266 16.06732217  2437
STARLINK-37888          
1 69535U 26133AD  26171.41668980 -.01487148  74259-3 -18513-2 0  9997
2 69535  53.1572 305.9228 0000623  77.1165  56.4963 16.07142163  2387
STARLINK-37889          
1 69536U 26133AE  26171.41668980 -.01713156  91014-3 -28835-2 0  9995
2 69536  53.1595 306.0960 0000717  72.8756 339.3744 16.02219676  2389
SHIJIAN-31 (SJ-31)      
1 69570U 26136A   26167.84805573  .00006163  24751-6  28088-3 0  9997
2 69570  63.4649 356.1810 7310406 171.7246 356.2040  2.28095748    54
