OBJECT_NAME,OBJECT_ID,EPOCH,MEAN_MOTION,ECCENTRICITY,INCLINATION,RA_OF_ASC_NODE,ARG_OF_PERICENTER,MEAN_ANOMALY,EPHEMERIS_TYPE,CLASSIFICATION_TYPE,NORAD_CAT_ID,ELEMENT_SET_NO,REV_AT_EPOCH,BSTAR,MEAN_MOTION_DOT,MEAN_MOTION_DDOT
STARLINK-37357,2026-133K,2026-06-20T10:00:01.998720,16.00949811,.0000758,53.1582,306.1376,71.6438,319.8560,0,U,69517,999,238,-.3209E-2,-.1769598E-1,.95279E-3
STARLINK-37408,2026-133L,2026-06-20T10:00:01.998720,16.01242896,.0000739,53.1582,306.1275,69.2474,327.1862,0,U,69518,999,238,-.31418E-2,-.1762303E-1,.94864E-3
STARLINK-37570,2026-133M,2026-06-20T10:00:01.998720,16.01982400,.0000739,53.1583,306.1033,69.8531,338.0418,0,U,69519,999,238,-.29229E-2,-.171254E-1,.90706E-3
STARLINK-37510,2026-133N,2026-06-20T10:00:01.998720,16.01620855,.0000827,53.1578,306.1160,74.3780,327.8470,0,U,69520,999,238,-.30297E-2,-.1737613E-1,.92805E-3
STARLINK-37586,2026-133P,2026-06-20T10:00:01.998720,16.02536437,.0000717,53.1578,306.0838,70.3904,346.9739,0,U,69521,999,238,-.28226E-2,-.170864E-1,.90901E-3
STARLINK-37379,2026-133Q,2026-06-20T10:00:01.998720,16.02753377,.0000691,53.1579,306.0747,78.0989,343.4751,0,U,69522,999,243,-.27757E-2,-.1702085E-1,.90481E-3
STARLINK-37429,2026-133R,2026-06-20T10:00:01.998720,16.02963154,.0000804,53.1577,306.0661,76.5840,349.1210,0,U,69523,999,243,-.27312E-2,-.1695868E-1,.90087E-3
STARLINK-37352,2026-133S,2026-06-20T10:00:01.998720,16.03327691,.0000674,53.1577,306.0542,73.4809,357.8422,0,U,69524,999,243,-.26374E-2,-.1673902E-1,.88306E-3
STARLINK-37490,2026-133T,2026-06-20T10:00:01.998720,16.04132446,.0001071,53.1574,306.0312,67.9386,14.3799,0,U,69525,999,243,-.27418E-2,-.1824286E-1,.10469E-2
STARLINK-37438,2026-133U,2026-06-20T10:00:01.998720,16.03631188,.0000891,53.1577,306.0444,73.5679,2.7715,0,U,69526,999,243,-.25597E-2,-.1654635E-1,.86737E-3
STARLINK-37484,2026-133V,2026-06-20T10:00:01.998720,16.04324528,.0000697,53.1574,306.0194,66.8217,21.1318,0,U,69527,999,243,-.24461E-2,-.1648752E-1,.86872E-3
STARLINK-37523,2026-133W,2026-06-20T10:00:01.998720,16.04547648,.0000705,53.1575,306.0104,78.4357,13.8327,0,U,69528,999,243,-.23721E-2,-.1621058E-1,.84409E-3
STARLINK-37369,2026-133X,2026-06-20T10:00:01.998720,16.04774971,.0000651,53.1571,306.0011,71.2008,25.4875,0,U,69529,999,243,-.22887E-2,-.1586275E-1,.81305E-3
STARLINK-37670,2026-133Y,2026-06-20T10:00:01.998720,16.05277249,.0000588,53.1571,305.9876,83.1752,20.1513,0,U,69530,999,243,-.22227E-2,-.158858E-1,.82013E-3
STARLINK-37897,2026-133Z,2026-06-20T10:00:01.998720,16.05589196,.0000724,53.1570,305.9741,79.6577,29.8480,0,U,69531,999,238,-.21351E-2,-.1555956E-1,.7922E-3
STARLINK-37933,2026-133AA,2026-06-20T10:00:01.998720,16.06097562,.0000695,53.1571,305.9597,68.1335,48.1374,0,U,69532,999,238,-.20451E-2,-.1538261E-1,.7804E-3
STARLINK-37890,2026-133AB,2026-06-20T10:00:01.998720,16.06381030,.0000713,53.1573,305.9499,71.8054,49.1646,0,U,69533,999,238,-.2006E-2,-.1535657E-1,.78064E-3
STARLINK-37407,2026-133AC,2026-06-20T10:00:01.998720,16.06732217,.0000711,53.1570,305.9347,78.6011,49.3266,0,U,69534,999,243,-.18854E-2,-.1476205E-1,.7289E-3
STARLINK-37888,2026-133AD,2026-06-20T10:00:01.998720,16.07142163,.0000623,53.1572,305.9228,77.1165,56.4963,0,U,69535,999,238,-.18513E-2,-.1487148E-1,.74259E-3
STARLINK-37889,2026-133AE,2026-06-20T10:00:01.998720,16.02219676,.0000717,53.1595,306.0960,72.8756,339.3744,0,U,69536,999,238,-.28835E-2,-.1713156E-1,.91014E-3
SHIJIAN-31 (SJ-31),2026-136A,2026-06-16T20:21:12.015072,2.28095748,.7310406,63.4649,356.1810,171.7246,356.2040,0,U,69570,999,5,.28088E-3,.6163E-4,.24751E-6
